[{"OBJECT_NAME":"SWARM B","OBJECT_ID":"2013-067A","EPOCH":"2026-03-09T22:20:48.706656","MEAN_MOTION":15.27862638,"ECCENTRICITY":0.00036996,"INCLINATION":87.749,"RA_OF_ASC_NODE":12.4162,"ARG_OF_PERICENTER":86.3179,"MEAN_ANOMALY":273.8493,"EPHEMERIS_TYPE":0,"CLASSIFICATION_TYPE":"U","NORAD_CAT_ID":39451,"ELEMENT_SET_NO":999,"REV_AT_EPOCH":66808,"BSTAR":0.00020534236,"MEAN_MOTION_DOT":5.616e-5,"MEAN_MOTION_DDOT":0},{"OBJECT_NAME":"STARLINK-31535","OBJECT_ID":"2024-071W","EPOCH":"2026-03-08T04:06:55.284480","MEAN_MOTION":15.27545379,"ECCENTRICITY":0.00013683,"INCLINATION":43.0082,"RA_OF_ASC_NODE":356.0805,"ARG_OF_PERICENTER":284.5598,"MEAN_ANOMALY":75.5102,"EPHEMERIS_TYPE":0,"CLASSIFICATION_TYPE":"U","NORAD_CAT_ID":59504,"ELEMENT_SET_NO":999,"REV_AT_EPOCH":10788,"BSTAR":0.00042257741,"MEAN_MOTION_DOT":0.00011372,"MEAN_MOTION_DDOT":0}]
